{
    "links": {
        "self": "http://www.neowsapp.com/rest/v1/neo/3588784?api_key=iIulBulltgU6a56xZRHN4H3l9WmuAYTsLGpBGhQ2"
    },
    "id": "3588784",
    "neo_reference_id": "3588784",
    "name": "(2011 WJ15)",
    "designation": "2011 WJ15",
    "nasa_jpl_url": "http://ssd.jpl.nasa.gov/sbdb.cgi?sstr=3588784",
    "absolute_magnitude_h": 25.2,
    "estimated_diameter": {
        "kilometers": {
            "estimated_diameter_min": 0.0242412481,
            "estimated_diameter_max": 0.0542050786
        },
        "meters": {
            "estimated_diameter_min": 24.2412481101,
            "estimated_diameter_max": 54.2050786336
        },
        "miles": {
            "estimated_diameter_min": 0.0150628086,
            "estimated_diameter_max": 0.0336814639
        },
        "feet": {
            "estimated_diameter_min": 79.5316564495,
            "estimated_diameter_max": 177.8381901842
        }
    },
    "is_potentially_hazardous_asteroid": false,
    "close_approach_data": [
        {
            "close_approach_date": "2011-11-20",
            "close_approach_date_full": "2011-Nov-20 10:02",
            "epoch_date_close_approach": 1321783320000,
            "relative_velocity": {
                "kilometers_per_second": "27.1614237933",
                "kilometers_per_hour": "97781.125655952",
                "miles_per_hour": "60757.3888832775"
            },
            "miss_distance": {
                "astronomical": "0.0054538457",
                "lunar": "2.1215459773",
                "kilometers": "815883.700028659",
                "miles": "506966.6228431342"
            },
            "orbiting_body": "Moon"
        },
        {
            "close_approach_date": "2011-11-20",
            "close_approach_date_full": "2011-Nov-20 12:08",
            "epoch_date_close_approach": 1321790880000,
            "relative_velocity": {
                "kilometers_per_second": "26.2948181045",
                "kilometers_per_hour": "94661.3451763483",
                "miles_per_hour": "58818.8786180482"
            },
            "miss_distance": {
                "astronomical": "0.0066751431",
                "lunar": "2.5966306659",
                "kilometers": "998587.189705197",
                "miles": "620493.3070258386"
            },
            "orbiting_body": "Earth"
        }
    ],
    "orbital_data": {
        "orbit_id": "6",
        "orbit_determination_date": "2017-04-06 08:51:56",
        "first_observation_date": "2011-11-22",
        "last_observation_date": "2011-12-01",
        "data_arc_in_days": 9,
        "observations_used": 47,
        "orbit_uncertainty": "8",
        "minimum_orbit_intersection": ".00482182",
        "jupiter_tisserand_invariant": "3.044",
        "epoch_osculation": "2455889.5",
        "eccentricity": ".7891173714325855",
        "semi_major_axis": "2.309067276180305",
        "inclination": "14.89221032510687",
        "ascending_node_longitude": "58.89454158804904",
        "orbital_period": "1281.602384290285",
        "perihelion_distance": ".4869421767399028",
        "perihelion_argument": "260.2403955470429",
        "aphelion_distance": "4.131192375620708",
        "perihelion_time": "2455841.760597038535",
        "mean_anomaly": "13.40991970426508",
        "mean_motion": ".2808983538208364",
        "equinox": "J2000",
        "orbit_class": {
            "orbit_class_type": "APO",
            "orbit_class_description": "Near-Earth asteroid orbits which cross the Earth’s orbit similar to that of 1862 Apollo",
            "orbit_class_range": "a (semi-major axis) > 1.0 AU; q (perihelion) < 1.017 AU"
        }
    },
    "is_sentry_object": false
}